kind,parent_hierarchy,parents,code,name,abbr,lat,lng
6,6:76:11,3=76&5=11,1101,Madeira-Guaporé,Madeira-Guaporé,,
6,6:76:11,3=76&5=11,1102,Leste Rondoniense,Leste Rondoniense,,
6,6:76:12,3=76&5=12,1201,Vale do Juruá,Vale do Juruá,,
6,6:76:12,3=76&5=12,1202,Vale do Acre,Vale do Acre,,
6,6:76:13,3=76&5=13,1301,Norte Amazonense,Norte Amazonense,,
6,6:76:13,3=76&5=13,1302,Sudoeste Amazonense,Sudoeste Amazonense,,
6,6:76:13,3=76&5=13,1303,Centro Amazonense,Centro Amazonense,,
6,6:76:13,3=76&5=13,1304,Sul Amazonense,Sul Amazonense,,
6,6:76:14,3=76&5=14,1401,Norte de Roraima,Norte de Roraima,,
6,6:76:14,3=76&5=14,1402,Sul de Roraima,Sul de Roraima,,
6,6:76:15,3=76&5=15,1501,Baixo Amazonas,Baixo Amazonas,,
6,6:76:15,3=76&5=15,1502,Marajó,Marajó,,
6,6:76:15,3=76&5=15,1503,Metropolitana de Belém,Metropolitana de Belém,,
6,6:76:15,3=76&5=15,1504,Nordeste Paraense,Nordeste Paraense,,
6,6:76:15,3=76&5=15,1505,Sudoeste Paraense,Sudoeste Paraense,,
6,6:76:15,3=76&5=15,1506,Sudeste Paraense,Sudeste Paraense,,
6,6:76:16,3=76&5=16,1601,Norte do Amapá,Norte do Amapá,,
6,6:76:16,3=76&5=16,1602,Sul do Amapá,Sul do Amapá,,
6,6:76:17,3=76&5=17,1701,Ocidental do Tocantins,Ocidental do Tocantins,,
6,6:76:17,3=76&5=17,1702,Oriental do Tocantins,Oriental do Tocantins,,
6,6:76:21,3=76&5=21,2101,Norte Maranhense,Norte Maranhense,,
6,6:76:21,3=76&5=21,2102,Oeste Maranhense,Oeste Maranhense,,
6,6:76:21,3=76&5=21,2103,Centro Maranhense,Centro Maranhense,,
6,6:76:21,3=76&5=21,2104,Leste Maranhense,Leste Maranhense,,
6,6:76:21,3=76&5=21,2105,Sul Maranhense,Sul Maranhense,,
6,6:76:22,3=76&5=22,2201,Norte Piauiense,Norte Piauiense,,
6,6:76:22,3=76&5=22,2202,Centro-Norte Piauiense,Centro-Norte Piauiense,,
6,6:76:22,3=76&5=22,2203,Sudoeste Piauiense,Sudoeste Piauiense,,
6,6:76:22,3=76&5=22,2204,Sudeste Piauiense,Sudeste Piauiense,,
6,6:76:23,3=76&5=23,2301,Noroeste Cearense,Noroeste Cearense,,
6,6:76:23,3=76&5=23,2302,Norte Cearense,Norte Cearense,,
6,6:76:23,3=76&5=23,2303,Metropolitana de Fortaleza,Metropolitana de Fortaleza,,
6,6:76:23,3=76&5=23,2304,Sertões Cearenses,Sertões Cearenses,,
6,6:76:23,3=76&5=23,2305,Jaguaribe,Jaguaribe,,
6,6:76:23,3=76&5=23,2306,Centro-Sul Cearense,Centro-Sul Cearense,,
6,6:76:23,3=76&5=23,2307,Sul Cearense,Sul Cearense,,
6,6:76:24,3=76&5=24,2401,Oeste Potiguar,Oeste Potiguar,,
6,6:76:24,3=76&5=24,2402,Central Potiguar,Central Potiguar,,
6,6:76:24,3=76&5=24,2403,Agreste Potiguar,Agreste Potiguar,,
6,6:76:24,3=76&5=24,2404,Leste Potiguar,Leste Potiguar,,
6,6:76:25,3=76&5=25,2501,Sertão Paraibano,Sertão Paraibano,,
6,6:76:25,3=76&5=25,2502,Borborema,Borborema,,
6,6:76:25,3=76&5=25,2503,Agreste Paraibano,Agreste Paraibano,,
6,6:76:25,3=76&5=25,2504,Mata Paraibana,Mata Paraibana,,
6,6:76:26,3=76&5=26,2601,Sertão Pernambucano,Sertão Pernambucano,,
6,6:76:26,3=76&5=26,2602,São Francisco Pernambucano,São Francisco Pernambucano,,
6,6:76:26,3=76&5=26,2603,Agreste Pernambucano,Agreste Pernambucano,,
6,6:76:26,3=76&5=26,2604,Mata Pernambucana,Mata Pernambucana,,
6,6:76:26,3=76&5=26,2605,Metropolitana de Recife,Metropolitana de Recife,,
6,6:76:27,3=76&5=27,2701,Sertão Alagoano,Sertão Alagoano,,
6,6:76:27,3=76&5=27,2702,Agreste Alagoano,Agreste Alagoano,,
6,6:76:27,3=76&5=27,2703,Leste Alagoano,Leste Alagoano,,
6,6:76:28,3=76&5=28,2801,Sertão Sergipano,Sertão Sergipano,,
6,6:76:28,3=76&5=28,2802,Agreste Sergipano,Agreste Sergipano,,
6,6:76:28,3=76&5=28,2803,Leste Sergipano,Leste Sergipano,,
6,6:76:29,3=76&5=29,2901,Extremo Oeste Baiano,Extremo Oeste Baiano,,
6,6:76:29,3=76&5=29,2902,Vale São-Franciscano da Bahia,Vale São-Franciscano da Bahia,,
6,6:76:29,3=76&5=29,2903,Centro Norte Baiano,Centro Norte Baiano,,
6,6:76:29,3=76&5=29,2904,Nordeste Baiano,Nordeste Baiano,,
6,6:76:29,3=76&5=29,2905,Metropolitana de Salvador,Metropolitana de Salvador,,
6,6:76:29,3=76&5=29,2906,Centro Sul Baiano,Centro Sul Baiano,,
6,6:76:29,3=76&5=29,2907,Sul Baiano,Sul Baiano,,
6,6:76:31,3=76&5=31,3101,Noroeste de Minas,Noroeste de Minas,,
6,6:76:31,3=76&5=31,3102,Norte de Minas,Norte de Minas,,
6,6:76:31,3=76&5=31,3103,Jequitinhonha,Jequitinhonha,,
6,6:76:31,3=76&5=31,3104,Vale do Mucuri,Vale do Mucuri,,
6,6:76:31,3=76&5=31,3105,Triângulo Mineiro/Alto Paranaíba,Triângulo Mineiro/Alto Paranaíba,,
6,6:76:31,3=76&5=31,3106,Central Mineira,Central Mineira,,
6,6:76:31,3=76&5=31,3107,Metropolitana de Belo Horizonte,Metropolitana de Belo Horizonte,,
6,6:76:31,3=76&5=31,3108,Vale do Rio Doce,Vale do Rio Doce,,
6,6:76:31,3=76&5=31,3109,Oeste de Minas,Oeste de Minas,,
6,6:76:31,3=76&5=31,3110,Sul/Sudoeste de Minas,Sul/Sudoeste de Minas,,
6,6:76:31,3=76&5=31,3111,Campo das Vertentes,Campo das Vertentes,,
6,6:76:31,3=76&5=31,3112,Zona da Mata,Zona da Mata,,
6,6:76:32,3=76&5=32,3201,Noroeste Espírito-santense,Noroeste Espírito-santense,,
6,6:76:32,3=76&5=32,3202,Litoral Norte Espírito-santense,Litoral Norte Espírito-santense,,
6,6:76:32,3=76&5=32,3203,Central Espírito-santense,Central Espírito-santense,,
6,6:76:32,3=76&5=32,3204,Sul Espírito-santense,Sul Espírito-santense,,
6,6:76:33,3=76&5=33,3301,Noroeste Fluminense,Noroeste Fluminense,,
6,6:76:33,3=76&5=33,3302,Norte Fluminense,Norte Fluminense,,
6,6:76:33,3=76&5=33,3303,Centro Fluminense,Centro Fluminense,,
6,6:76:33,3=76&5=33,3304,Baixadas,Baixadas,,
6,6:76:33,3=76&5=33,3305,Sul Fluminense,Sul Fluminense,,
6,6:76:33,3=76&5=33,3306,Metropolitana do Rio de Janeiro,Metropolitana do Rio de Janeiro,,
6,6:76:35,3=76&5=35,3501,São José do Rio Preto,São José do Rio Preto,,
6,6:76:35,3=76&5=35,3502,Ribeirão Preto,Ribeirão Preto,,
6,6:76:35,3=76&5=35,3503,Araçatuba,Araçatuba,,
6,6:76:35,3=76&5=35,3504,Bauru,Bauru,,
6,6:76:35,3=76&5=35,3505,Araraquara,Araraquara,,
6,6:76:35,3=76&5=35,3506,Piracicaba,Piracicaba,,
6,6:76:35,3=76&5=35,3507,Campinas,Campinas,,
6,6:76:35,3=76&5=35,3508,Presidente Prudente,Presidente Prudente,,
6,6:76:35,3=76&5=35,3509,Marília,Marília,,
6,6:76:35,3=76&5=35,3510,Assis,Assis,,
6,6:76:35,3=76&5=35,3511,Itapetininga,Itapetininga,,
6,6:76:35,3=76&5=35,3512,Macro Metropolitana Paulista,Macro Metropolitana Paulista,,
6,6:76:35,3=76&5=35,3513,Vale do Paraíba Paulista,Vale do Paraíba Paulista,,
6,6:76:35,3=76&5=35,3514,Litoral Sul Paulista,Litoral Sul Paulista,,
6,6:76:35,3=76&5=35,3515,Metropolitana de São Paulo,Metropolitana de São Paulo,,
6,6:76:41,3=76&5=41,4101,Noroeste Paranaense,Noroeste Paranaense,,
6,6:76:41,3=76&5=41,4102,Centro Ocidental Paranaense,Centro Ocidental Paranaense,,
6,6:76:41,3=76&5=41,4103,Norte Central Paranaense,Norte Central Paranaense,,
6,6:76:41,3=76&5=41,4104,Norte Pioneiro Paranaense,Norte Pioneiro Paranaense,,
6,6:76:41,3=76&5=41,4105,Centro Oriental Paranaense,Centro Oriental Paranaense,,
6,6:76:41,3=76&5=41,4106,Oeste Paranaense,Oeste Paranaense,,
6,6:76:41,3=76&5=41,4107,Sudoeste Paranaense,Sudoeste Paranaense,,
6,6:76:41,3=76&5=41,4108,Centro-Sul Paranaense,Centro-Sul Paranaense,,
6,6:76:41,3=76&5=41,4109,Sudeste Paranaense,Sudeste Paranaense,,
6,6:76:41,3=76&5=41,4110,Metropolitana de Curitiba,Metropolitana de Curitiba,,
6,6:76:42,3=76&5=42,4201,Oeste Catarinense,Oeste Catarinense,,
6,6:76:42,3=76&5=42,4202,Norte Catarinense,Norte Catarinense,,
6,6:76:42,3=76&5=42,4203,Serrana,Serrana,,
6,6:76:42,3=76&5=42,4204,Vale do Itajaí,Vale do Itajaí,,
6,6:76:42,3=76&5=42,4205,Grande Florianópolis,Grande Florianópolis,,
6,6:76:42,3=76&5=42,4206,Sul Catarinense,Sul Catarinense,,
6,6:76:43,3=76&5=43,4301,Noroeste Rio-grandense,Noroeste Rio-grandense,,
6,6:76:43,3=76&5=43,4302,Nordeste Rio-grandense,Nordeste Rio-grandense,,
6,6:76:43,3=76&5=43,4303,Centro Ocidental Rio-grandense,Centro Ocidental Rio-grandense,,
6,6:76:43,3=76&5=43,4304,Centro Oriental Rio-grandense,Centro Oriental Rio-grandense,,
6,6:76:43,3=76&5=43,4305,Metropolitana de Porto Alegre,Metropolitana de Porto Alegre,,
6,6:76:43,3=76&5=43,4306,Sudoeste Rio-grandense,Sudoeste Rio-grandense,,
6,6:76:43,3=76&5=43,4307,Sudeste Rio-grandense,Sudeste Rio-grandense,,
6,6:76:50,3=76&5=50,5001,Pantanais Sul Mato-grossense,Pantanais Sul Mato-grossense,,
6,6:76:50,3=76&5=50,5002,Centro Norte de Mato Grosso do Sul,Centro Norte de Mato Grosso do Sul,,
6,6:76:50,3=76&5=50,5003,Leste de Mato Grosso do Sul,Leste de Mato Grosso do Sul,,
6,6:76:50,3=76&5=50,5004,Sudoeste de Mato Grosso do Sul,Sudoeste de Mato Grosso do Sul,,
6,6:76:51,3=76&5=51,5101,Norte Mato-grossense,Norte Mato-grossense,,
6,6:76:51,3=76&5=51,5102,Nordeste Mato-grossense,Nordeste Mato-grossense,,
6,6:76:51,3=76&5=51,5103,Sudoeste Mato-grossense,Sudoeste Mato-grossense,,
6,6:76:51,3=76&5=51,5104,Centro-Sul Mato-grossense,Centro-Sul Mato-grossense,,
6,6:76:51,3=76&5=51,5105,Sudeste Mato-grossense,Sudeste Mato-grossense,,
6,6:76:52,3=76&5=52,5201,Noroeste Goiano,Noroeste Goiano,,
6,6:76:52,3=76&5=52,5202,Norte Goiano,Norte Goiano,,
6,6:76:52,3=76&5=52,5203,Centro Goiano,Centro Goiano,,
6,6:76:52,3=76&5=52,5204,Leste Goiano,Leste Goiano,,
6,6:76:52,3=76&5=52,5205,Sul Goiano,Sul Goiano,,
6,6:76:53,3=76&5=53,5301,Distrito Federal,Distrito Federal,,
