kind,parent_hierarchy,parents,code,name,abbr,lat,lng
6,6:76:11,3=76&5=11;3=76&5=11&6=1101,11001,Porto Velho,Porto Velho,,
6,6:76:11,3=76&5=11;3=76&5=11&6=1101,11002,Guajará-Mirim,Guajará-Mirim,,
6,6:76:11,3=76&5=11;3=76&5=11&6=1102,11003,Ariquemes,Ariquemes,,
6,6:76:11,3=76&5=11;3=76&5=11&6=1102,11004,Ji-Paraná,Ji-Paraná,,
6,6:76:11,3=76&5=11;3=76&5=11&6=1102,11005,Alvorada D'Oeste,Alvorada D'Oeste,,
6,6:76:11,3=76&5=11;3=76&5=11&6=1102,11006,Cacoal,Cacoal,,
6,6:76:11,3=76&5=11;3=76&5=11&6=1102,11007,Vilhena,Vilhena,,
6,6:76:11,3=76&5=11;3=76&5=11&6=1102,11008,Colorado do Oeste,Colorado do Oeste,,
6,6:76:12,3=76&5=12;3=76&5=12&6=1201,12001,Cruzeiro do Sul,Cruzeiro do Sul,,
6,6:76:12,3=76&5=12;3=76&5=12&6=1201,12002,Tarauacá,Tarauacá,,
6,6:76:12,3=76&5=12;3=76&5=12&6=1202,12003,Sena Madureira,Sena Madureira,,
6,6:76:12,3=76&5=12;3=76&5=12&6=1202,12004,Rio Branco,Rio Branco,,
6,6:76:12,3=76&5=12;3=76&5=12&6=1202,12005,Brasiléia,Brasiléia,,
6,6:76:13,3=76&5=13;3=76&5=13&6=1301,13001,Rio Negro,Rio Negro,,
6,6:76:13,3=76&5=13;3=76&5=13&6=1301,13002,Japurá,Japurá,,
6,6:76:13,3=76&5=13;3=76&5=13&6=1302,13003,Alto Solimões,Alto Solimões,,
6,6:76:13,3=76&5=13;3=76&5=13&6=1302,13004,Juruá,Juruá,,
6,6:76:13,3=76&5=13;3=76&5=13&6=1303,13005,Tefé,Tefé,,
6,6:76:13,3=76&5=13;3=76&5=13&6=1303,13006,Coari,Coari,,
6,6:76:13,3=76&5=13;3=76&5=13&6=1303,13007,Manaus,Manaus,,
6,6:76:13,3=76&5=13;3=76&5=13&6=1303,13008,Rio Preto da Eva,Rio Preto da Eva,,
6,6:76:13,3=76&5=13;3=76&5=13&6=1303,13009,Itacoatiara,Itacoatiara,,
6,6:76:13,3=76&5=13;3=76&5=13&6=1303,13010,Parintins,Parintins,,
6,6:76:13,3=76&5=13;3=76&5=13&6=1304,13011,Boca do Acre,Boca do Acre,,
6,6:76:13,3=76&5=13;3=76&5=13&6=1304,13012,Purus,Purus,,
6,6:76:13,3=76&5=13;3=76&5=13&6=1304,13013,Madeira,Madeira,,
6,6:76:14,3=76&5=14;3=76&5=14&6=1401,14001,Boa Vista,Boa Vista,,
6,6:76:14,3=76&5=14;3=76&5=14&6=1401,14002,Nordeste de Roraima,Nordeste de Roraima,,
6,6:76:14,3=76&5=14;3=76&5=14&6=1402,14003,Caracaraí,Caracaraí,,
6,6:76:14,3=76&5=14;3=76&5=14&6=1402,14004,Sudeste de Roraima,Sudeste de Roraima,,
6,6:76:15,3=76&5=15;3=76&5=15&6=1501,15001,Óbidos,Óbidos,,
6,6:76:15,3=76&5=15;3=76&5=15&6=1501,15002,Santarém,Santarém,,
6,6:76:15,3=76&5=15;3=76&5=15&6=1501,15003,Almeirim,Almeirim,,
6,6:76:15,3=76&5=15;3=76&5=15&6=1502,15004,Portel,Portel,,
6,6:76:15,3=76&5=15;3=76&5=15&6=1502,15005,Furos de Breves,Furos de Breves,,
6,6:76:15,3=76&5=15;3=76&5=15&6=1502,15006,Arari,Arari,,
6,6:76:15,3=76&5=15;3=76&5=15&6=1503,15007,Belém,Belém,,
6,6:76:15,3=76&5=15;3=76&5=15&6=1503,15008,Castanhal,Castanhal,,
6,6:76:15,3=76&5=15;3=76&5=15&6=1504,15009,Salgado,Salgado,,
6,6:76:15,3=76&5=15;3=76&5=15&6=1504,15010,Bragantina,Bragantina,,
6,6:76:15,3=76&5=15;3=76&5=15&6=1504,15011,Cametá,Cametá,,
6,6:76:15,3=76&5=15;3=76&5=15&6=1504,15012,Tomé-Açu,Tomé-Açu,,
6,6:76:15,3=76&5=15;3=76&5=15&6=1504,15013,Guamá,Guamá,,
6,6:76:15,3=76&5=15;3=76&5=15&6=1505,15014,Itaituba,Itaituba,,
6,6:76:15,3=76&5=15;3=76&5=15&6=1505,15015,Altamira,Altamira,,
6,6:76:15,3=76&5=15;3=76&5=15&6=1506,15016,Tucuruí,Tucuruí,,
6,6:76:15,3=76&5=15;3=76&5=15&6=1506,15017,Paragominas,Paragominas,,
6,6:76:15,3=76&5=15;3=76&5=15&6=1506,15018,São Félix do Xingu,São Félix do Xingu,,
6,6:76:15,3=76&5=15;3=76&5=15&6=1506,15019,Parauapebas,Parauapebas,,
6,6:76:15,3=76&5=15;3=76&5=15&6=1506,15020,Marabá,Marabá,,
6,6:76:15,3=76&5=15;3=76&5=15&6=1506,15021,Redenção,Redenção,,
6,6:76:15,3=76&5=15;3=76&5=15&6=1506,15022,Conceição do Araguaia,Conceição do Araguaia,,
6,6:76:16,3=76&5=16;3=76&5=16&6=1601,16001,Oiapoque,Oiapoque,,
6,6:76:16,3=76&5=16;3=76&5=16&6=1601,16002,Amapá,Amapá,,
6,6:76:16,3=76&5=16;3=76&5=16&6=1602,16003,Macapá,Macapá,,
6,6:76:16,3=76&5=16;3=76&5=16&6=1602,16004,Mazagão,Mazagão,,
6,6:76:17,3=76&5=17;3=76&5=17&6=1701,17001,Bico do Papagaio,Bico do Papagaio,,
6,6:76:17,3=76&5=17;3=76&5=17&6=1701,17002,Araguaína,Araguaína,,
6,6:76:17,3=76&5=17;3=76&5=17&6=1701,17003,Miracema do Tocantins,Miracema do Tocantins,,
6,6:76:17,3=76&5=17;3=76&5=17&6=1701,17004,Rio Formoso,Rio Formoso,,
6,6:76:17,3=76&5=17;3=76&5=17&6=1701,17005,Gurupi,Gurupi,,
6,6:76:17,3=76&5=17;3=76&5=17&6=1702,17006,Porto Nacional,Porto Nacional,,
6,6:76:17,3=76&5=17;3=76&5=17&6=1702,17007,Jalapão,Jalapão,,
6,6:76:17,3=76&5=17;3=76&5=17&6=1702,17008,Dianópolis,Dianópolis,,
6,6:76:21,3=76&5=21;3=76&5=21&6=2101,21001,Litoral Ocidental Maranhense,Litoral Ocidental Maranhense,,
6,6:76:21,3=76&5=21;3=76&5=21&6=2101,21002,Aglomeração Urbana de São Luís,Aglomeração Urbana de São Luís,,
6,6:76:21,3=76&5=21;3=76&5=21&6=2101,21003,Rosário,Rosário,,
6,6:76:21,3=76&5=21;3=76&5=21&6=2101,21004,Lençóis Maranhenses,Lençóis Maranhenses,,
6,6:76:21,3=76&5=21;3=76&5=21&6=2101,21005,Baixada Maranhense,Baixada Maranhense,,
6,6:76:21,3=76&5=21;3=76&5=21&6=2101,21006,Itapecuru Mirim,Itapecuru Mirim,,
6,6:76:21,3=76&5=21;3=76&5=21&6=2102,21007,Gurupi,Gurupi,,
6,6:76:21,3=76&5=21;3=76&5=21&6=2102,21008,Pindaré,Pindaré,,
6,6:76:21,3=76&5=21;3=76&5=21&6=2102,21009,Imperatriz,Imperatriz,,
6,6:76:21,3=76&5=21;3=76&5=21&6=2103,21010,Médio Mearim,Médio Mearim,,
6,6:76:21,3=76&5=21;3=76&5=21&6=2103,21011,Alto Mearim e Grajaú,Alto Mearim e Grajaú,,
6,6:76:21,3=76&5=21;3=76&5=21&6=2103,21012,Presidente Dutra,Presidente Dutra,,
6,6:76:21,3=76&5=21;3=76&5=21&6=2104,21013,Baixo Parnaíba Maranhense,Baixo Parnaíba Maranhense,,
6,6:76:21,3=76&5=21;3=76&5=21&6=2104,21014,Chapadinha,Chapadinha,,
6,6:76:21,3=76&5=21;3=76&5=21&6=2104,21015,Codó,Codó,,
6,6:76:21,3=76&5=21;3=76&5=21&6=2104,21016,Coelho Neto,Coelho Neto,,
6,6:76:21,3=76&5=21;3=76&5=21&6=2104,21017,Caxias,Caxias,,
6,6:76:21,3=76&5=21;3=76&5=21&6=2104,21018,Chapadas do Alto Itapecuru,Chapadas do Alto Itapecuru,,
6,6:76:21,3=76&5=21;3=76&5=21&6=2105,21019,Porto Franco,Porto Franco,,
6,6:76:21,3=76&5=21;3=76&5=21&6=2105,21020,Gerais de Balsas,Gerais de Balsas,,
6,6:76:21,3=76&5=21;3=76&5=21&6=2105,21021,Chapadas das Mangabeiras,Chapadas das Mangabeiras,,
6,6:76:22,3=76&5=22;3=76&5=22&6=2201,22001,Baixo Parnaíba Piauiense,Baixo Parnaíba Piauiense,,
6,6:76:22,3=76&5=22;3=76&5=22&6=2201,22002,Litoral Piauiense,Litoral Piauiense,,
6,6:76:22,3=76&5=22;3=76&5=22&6=2202,22003,Teresina,Teresina,,
6,6:76:22,3=76&5=22;3=76&5=22&6=2202,22004,Campo Maior,Campo Maior,,
6,6:76:22,3=76&5=22;3=76&5=22&6=2202,22005,Médio Parnaíba Piauiense,Médio Parnaíba Piauiense,,
6,6:76:22,3=76&5=22;3=76&5=22&6=2202,22006,Valença do Piauí,Valença do Piauí,,
6,6:76:22,3=76&5=22;3=76&5=22&6=2203,22007,Alto Parnaíba Piauiense,Alto Parnaíba Piauiense,,
6,6:76:22,3=76&5=22;3=76&5=22&6=2203,22008,Bertolínia,Bertolínia,,
6,6:76:22,3=76&5=22;3=76&5=22&6=2203,22009,Floriano,Floriano,,
6,6:76:22,3=76&5=22;3=76&5=22&6=2203,22010,Alto Médio Gurguéia,Alto Médio Gurguéia,,
6,6:76:22,3=76&5=22;3=76&5=22&6=2203,22011,São Raimundo Nonato,São Raimundo Nonato,,
6,6:76:22,3=76&5=22;3=76&5=22&6=2203,22012,Chapadas do Extremo Sul Piauiense,Chapadas do Extremo Sul Piauiense,,
6,6:76:22,3=76&5=22;3=76&5=22&6=2204,22013,Picos,Picos,,
6,6:76:22,3=76&5=22;3=76&5=22&6=2204,22014,Pio IX,Pio IX,,
6,6:76:22,3=76&5=22;3=76&5=22&6=2204,22015,Alto Médio Canindé,Alto Médio Canindé,,
6,6:76:23,3=76&5=23;3=76&5=23&6=2301,23001,Litoral de Camocim e Acaraú,Litoral de Camocim e Acaraú,,
6,6:76:23,3=76&5=23;3=76&5=23&6=2301,23002,Ibiapaba,Ibiapaba,,
6,6:76:23,3=76&5=23;3=76&5=23&6=2301,23003,Coreaú,Coreaú,,
6,6:76:23,3=76&5=23;3=76&5=23&6=2301,23004,Meruoca,Meruoca,,
6,6:76:23,3=76&5=23;3=76&5=23&6=2301,23005,Sobral,Sobral,,
6,6:76:23,3=76&5=23;3=76&5=23&6=2301,23006,Ipu,Ipu,,
6,6:76:23,3=76&5=23;3=76&5=23&6=2301,23007,Santa Quitéria,Santa Quitéria,,
6,6:76:23,3=76&5=23;3=76&5=23&6=2302,23008,Itapipoca,Itapipoca,,
6,6:76:23,3=76&5=23;3=76&5=23&6=2302,23009,Baixo Curu,Baixo Curu,,
6,6:76:23,3=76&5=23;3=76&5=23&6=2302,23010,Uruburetama,Uruburetama,,
6,6:76:23,3=76&5=23;3=76&5=23&6=2302,23011,Médio Curu,Médio Curu,,
6,6:76:23,3=76&5=23;3=76&5=23&6=2302,23012,Canindé,Canindé,,
6,6:76:23,3=76&5=23;3=76&5=23&6=2302,23013,Baturité,Baturité,,
6,6:76:23,3=76&5=23;3=76&5=23&6=2302,23014,Chorozinho,Chorozinho,,
6,6:76:23,3=76&5=23;3=76&5=23&6=2302,23015,Cascavel,Cascavel,,
6,6:76:23,3=76&5=23;3=76&5=23&6=2303,23016,Fortaleza,Fortaleza,,
6,6:76:23,3=76&5=23;3=76&5=23&6=2303,23017,Pacajus,Pacajus,,
6,6:76:23,3=76&5=23;3=76&5=23&6=2304,23018,Sertão de Cratéus,Sertão de Cratéus,,
6,6:76:23,3=76&5=23;3=76&5=23&6=2304,23019,Sertão de Quixeramobim,Sertão de Quixeramobim,,
6,6:76:23,3=76&5=23;3=76&5=23&6=2304,23020,Sertão de Inhamuns,Sertão de Inhamuns,,
6,6:76:23,3=76&5=23;3=76&5=23&6=2304,23021,Sertão de Senador Pompeu,Sertão de Senador Pompeu,,
6,6:76:23,3=76&5=23;3=76&5=23&6=2305,23022,Litoral de Aracati,Litoral de Aracati,,
6,6:76:23,3=76&5=23;3=76&5=23&6=2305,23023,Baixo Jaguaribe,Baixo Jaguaribe,,
6,6:76:23,3=76&5=23;3=76&5=23&6=2305,23024,Médio Jaguaribe,Médio Jaguaribe,,
6,6:76:23,3=76&5=23;3=76&5=23&6=2305,23025,Serra do Pereiro,Serra do Pereiro,,
6,6:76:23,3=76&5=23;3=76&5=23&6=2306,23026,Iguatu,Iguatu,,
6,6:76:23,3=76&5=23;3=76&5=23&6=2306,23027,Várzea Alegre,Várzea Alegre,,
6,6:76:23,3=76&5=23;3=76&5=23&6=2306,23028,Lavras da Mangabeira,Lavras da Mangabeira,,
6,6:76:23,3=76&5=23;3=76&5=23&6=2307,23029,Chapada do Araripe,Chapada do Araripe,,
6,6:76:23,3=76&5=23;3=76&5=23&6=2307,23030,Caririaçu,Caririaçu,,
6,6:76:23,3=76&5=23;3=76&5=23&6=2307,23031,Barro,Barro,,
6,6:76:23,3=76&5=23;3=76&5=23&6=2307,23032,Cariri,Cariri,,
6,6:76:23,3=76&5=23;3=76&5=23&6=2307,23033,Brejo Santo,Brejo Santo,,
6,6:76:24,3=76&5=24;3=76&5=24&6=2401,24001,Mossoró,Mossoró,,
6,6:76:24,3=76&5=24;3=76&5=24&6=2401,24002,Chapada do Apodi,Chapada do Apodi,,
6,6:76:24,3=76&5=24;3=76&5=24&6=2401,24003,Médio Oeste,Médio Oeste,,
6,6:76:24,3=76&5=24;3=76&5=24&6=2401,24004,Vale do Açu,Vale do Açu,,
6,6:76:24,3=76&5=24;3=76&5=24&6=2401,24005,Serra de São Miguel,Serra de São Miguel,,
6,6:76:24,3=76&5=24;3=76&5=24&6=2401,24006,Pau dos Ferros,Pau dos Ferros,,
6,6:76:24,3=76&5=24;3=76&5=24&6=2401,24007,Umarizal,Umarizal,,
6,6:76:24,3=76&5=24;3=76&5=24&6=2402,24008,Macau,Macau,,
6,6:76:24,3=76&5=24;3=76&5=24&6=2402,24009,Angicos,Angicos,,
6,6:76:24,3=76&5=24;3=76&5=24&6=2402,24010,Serra de Santana,Serra de Santana,,
6,6:76:24,3=76&5=24;3=76&5=24&6=2402,24011,Seridó Ocidental,Seridó Ocidental,,
6,6:76:24,3=76&5=24;3=76&5=24&6=2402,24012,Seridó Oriental,Seridó Oriental,,
6,6:76:24,3=76&5=24;3=76&5=24&6=2403,24013,Baixa Verde,Baixa Verde,,
6,6:76:24,3=76&5=24;3=76&5=24&6=2403,24014,Borborema Potiguar,Borborema Potiguar,,
6,6:76:24,3=76&5=24;3=76&5=24&6=2403,24015,Agreste Potiguar,Agreste Potiguar,,
6,6:76:24,3=76&5=24;3=76&5=24&6=2404,24016,Litoral Nordeste,Litoral Nordeste,,
6,6:76:24,3=76&5=24;3=76&5=24&6=2404,24017,Macaíba,Macaíba,,
6,6:76:24,3=76&5=24;3=76&5=24&6=2404,24018,Natal,Natal,,
6,6:76:24,3=76&5=24;3=76&5=24&6=2404,24019,Litoral Sul,Litoral Sul,,
6,6:76:25,3=76&5=25;3=76&5=25&6=2501,25001,Catolé do Rocha,Catolé do Rocha,,
6,6:76:25,3=76&5=25;3=76&5=25&6=2501,25002,Cajazeiras,Cajazeiras,,
6,6:76:25,3=76&5=25;3=76&5=25&6=2501,25003,Sousa,Sousa,,
6,6:76:25,3=76&5=25;3=76&5=25&6=2501,25004,Patos,Patos,,
6,6:76:25,3=76&5=25;3=76&5=25&6=2501,25005,Piancó,Piancó,,
6,6:76:25,3=76&5=25;3=76&5=25&6=2501,25006,Itaporanga,Itaporanga,,
6,6:76:25,3=76&5=25;3=76&5=25&6=2501,25007,Serra do Teixeira,Serra do Teixeira,,
6,6:76:25,3=76&5=25;3=76&5=25&6=2502,25008,Seridó Ocidental Paraibano,Seridó Ocidental Paraibano,,
6,6:76:25,3=76&5=25;3=76&5=25&6=2502,25009,Seridó Oriental Paraibano,Seridó Oriental Paraibano,,
6,6:76:25,3=76&5=25;3=76&5=25&6=2502,25010,Cariri Ocidental,Cariri Ocidental,,
6,6:76:25,3=76&5=25;3=76&5=25&6=2502,25011,Cariri Oriental,Cariri Oriental,,
6,6:76:25,3=76&5=25;3=76&5=25&6=2503,25012,Curimataú Ocidental,Curimataú Ocidental,,
6,6:76:25,3=76&5=25;3=76&5=25&6=2503,25013,Curimataú Oriental,Curimataú Oriental,,
6,6:76:25,3=76&5=25;3=76&5=25&6=2503,25014,Esperança,Esperança,,
6,6:76:25,3=76&5=25;3=76&5=25&6=2503,25015,Brejo Paraibano,Brejo Paraibano,,
6,6:76:25,3=76&5=25;3=76&5=25&6=2503,25016,Guarabira,Guarabira,,
6,6:76:25,3=76&5=25;3=76&5=25&6=2503,25017,Campina Grande,Campina Grande,,
6,6:76:25,3=76&5=25;3=76&5=25&6=2503,25018,Itabaiana,Itabaiana,,
6,6:76:25,3=76&5=25;3=76&5=25&6=2503,25019,Umbuzeiro,Umbuzeiro,,
6,6:76:25,3=76&5=25;3=76&5=25&6=2504,25020,Litoral Norte,Litoral Norte,,
6,6:76:25,3=76&5=25;3=76&5=25&6=2504,25021,Sapé,Sapé,,
6,6:76:25,3=76&5=25;3=76&5=25&6=2504,25022,João Pessoa,João Pessoa,,
6,6:76:25,3=76&5=25;3=76&5=25&6=2504,25023,Litoral Sul,Litoral Sul,,
6,6:76:26,3=76&5=26;3=76&5=26&6=2601,26001,Araripina,Araripina,,
6,6:76:26,3=76&5=26;3=76&5=26&6=2601,26002,Salgueiro,Salgueiro,,
6,6:76:26,3=76&5=26;3=76&5=26&6=2601,26003,Pajeú,Pajeú,,
6,6:76:26,3=76&5=26;3=76&5=26&6=2601,26004,Sertão do Moxotó,Sertão do Moxotó,,
6,6:76:26,3=76&5=26;3=76&5=26&6=2602,26005,Petrolina,Petrolina,,
6,6:76:26,3=76&5=26;3=76&5=26&6=2602,26006,Itaparica,Itaparica,,
6,6:76:26,3=76&5=26;3=76&5=26&6=2603,26007,Vale do Ipanema,Vale do Ipanema,,
6,6:76:26,3=76&5=26;3=76&5=26&6=2603,26008,Vale do Ipojuca,Vale do Ipojuca,,
6,6:76:26,3=76&5=26;3=76&5=26&6=2603,26009,Alto Capibaribe,Alto Capibaribe,,
6,6:76:26,3=76&5=26;3=76&5=26&6=2603,26010,Médio Capibaribe,Médio Capibaribe,,
6,6:76:26,3=76&5=26;3=76&5=26&6=2603,26011,Garanhuns,Garanhuns,,
6,6:76:26,3=76&5=26;3=76&5=26&6=2603,26012,Brejo Pernambucano,Brejo Pernambucano,,
6,6:76:26,3=76&5=26;3=76&5=26&6=2604,26013,Mata Setentrional Pernambucana,Mata Setentrional Pernambucana,,
6,6:76:26,3=76&5=26;3=76&5=26&6=2604,26014,Vitória de Santo Antão,Vitória de Santo Antão,,
6,6:76:26,3=76&5=26;3=76&5=26&6=2604,26015,Mata Meridional Pernambucana,Mata Meridional Pernambucana,,
6,6:76:26,3=76&5=26;3=76&5=26&6=2605,26016,Itamaracá,Itamaracá,,
6,6:76:26,3=76&5=26;3=76&5=26&6=2605,26017,Recife,Recife,,
6,6:76:26,3=76&5=26;3=76&5=26&6=2605,26018,Suape,Suape,,
6,6:76:26,3=76&5=26;3=76&5=26&6=2605,26019,Fernando de Noronha,Fernando de Noronha,,
6,6:76:27,3=76&5=27;3=76&5=27&6=2701,27001,Serrana do Sertão Alagoano,Serrana do Sertão Alagoano,,
6,6:76:27,3=76&5=27;3=76&5=27&6=2701,27002,Alagoana do Sertão do São Francisco,Alagoana do Sertão do São Francisco,,
6,6:76:27,3=76&5=27;3=76&5=27&6=2701,27003,Santana do Ipanema,Santana do Ipanema,,
6,6:76:27,3=76&5=27;3=76&5=27&6=2701,27004,Batalha,Batalha,,
6,6:76:27,3=76&5=27;3=76&5=27&6=2702,27005,Palmeira dos Índios,Palmeira dos Índios,,
6,6:76:27,3=76&5=27;3=76&5=27&6=2702,27006,Arapiraca,Arapiraca,,
6,6:76:27,3=76&5=27;3=76&5=27&6=2702,27007,Traipu,Traipu,,
6,6:76:27,3=76&5=27;3=76&5=27&6=2703,27008,Serrana dos Quilombos,Serrana dos Quilombos,,
6,6:76:27,3=76&5=27;3=76&5=27&6=2703,27009,Mata Alagoana,Mata Alagoana,,
6,6:76:27,3=76&5=27;3=76&5=27&6=2703,27010,Litoral Norte Alagoano,Litoral Norte Alagoano,,
6,6:76:27,3=76&5=27;3=76&5=27&6=2703,27011,Maceió,Maceió,,
6,6:76:27,3=76&5=27;3=76&5=27&6=2703,27012,São Miguel dos Campos,São Miguel dos Campos,,
6,6:76:27,3=76&5=27;3=76&5=27&6=2703,27013,Penedo,Penedo,,
6,6:76:28,3=76&5=28;3=76&5=28&6=2801,28001,Sergipana do Sertão do São Francisco,Sergipana do Sertão do São Francisco,,
6,6:76:28,3=76&5=28;3=76&5=28&6=2801,28002,Carira,Carira,,
6,6:76:28,3=76&5=28;3=76&5=28&6=2802,28003,Nossa Senhora das Dores,Nossa Senhora das Dores,,
6,6:76:28,3=76&5=28;3=76&5=28&6=2802,28004,Agreste de Itabaiana,Agreste de Itabaiana,,
6,6:76:28,3=76&5=28;3=76&5=28&6=2802,28005,Tobias Barreto,Tobias Barreto,,
6,6:76:28,3=76&5=28;3=76&5=28&6=2802,28006,Agreste de Lagarto,Agreste de Lagarto,,
6,6:76:28,3=76&5=28;3=76&5=28&6=2803,28007,Propriá,Propriá,,
6,6:76:28,3=76&5=28;3=76&5=28&6=2803,28008,Cotinguiba,Cotinguiba,,
6,6:76:28,3=76&5=28;3=76&5=28&6=2803,28009,Japaratuba,Japaratuba,,
6,6:76:28,3=76&5=28;3=76&5=28&6=2803,28010,Baixo Cotinguiba,Baixo Cotinguiba,,
6,6:76:28,3=76&5=28;3=76&5=28&6=2803,28011,Aracaju,Aracaju,,
6,6:76:28,3=76&5=28;3=76&5=28&6=2803,28012,Boquim,Boquim,,
6,6:76:28,3=76&5=28;3=76&5=28&6=2803,28013,Estância,Estância,,
6,6:76:29,3=76&5=29;3=76&5=29&6=2901,29001,Barreiras,Barreiras,,
6,6:76:29,3=76&5=29;3=76&5=29&6=2901,29002,Cotegipe,Cotegipe,,
6,6:76:29,3=76&5=29;3=76&5=29&6=2901,29003,Santa Maria da Vitória,Santa Maria da Vitória,,
6,6:76:29,3=76&5=29;3=76&5=29&6=2902,29004,Juazeiro,Juazeiro,,
6,6:76:29,3=76&5=29;3=76&5=29&6=2902,29005,Paulo Afonso,Paulo Afonso,,
6,6:76:29,3=76&5=29;3=76&5=29&6=2902,29006,Barra,Barra,,
6,6:76:29,3=76&5=29;3=76&5=29&6=2902,29007,Bom Jesus da Lapa,Bom Jesus da Lapa,,
6,6:76:29,3=76&5=29;3=76&5=29&6=2903,29008,Senhor do Bonfim,Senhor do Bonfim,,
6,6:76:29,3=76&5=29;3=76&5=29&6=2903,29009,Irecê,Irecê,,
6,6:76:29,3=76&5=29;3=76&5=29&6=2903,29010,Jacobina,Jacobina,,
6,6:76:29,3=76&5=29;3=76&5=29&6=2903,29011,Itaberaba,Itaberaba,,
6,6:76:29,3=76&5=29;3=76&5=29&6=2903,29012,Feira de Santana,Feira de Santana,,
6,6:76:29,3=76&5=29;3=76&5=29&6=2904,29013,Jeremoabo,Jeremoabo,,
6,6:76:29,3=76&5=29;3=76&5=29&6=2904,29014,Euclides da Cunha,Euclides da Cunha,,
6,6:76:29,3=76&5=29;3=76&5=29&6=2904,29015,Ribeira do Pombal,Ribeira do Pombal,,
6,6:76:29,3=76&5=29;3=76&5=29&6=2904,29016,Serrinha,Serrinha,,
6,6:76:29,3=76&5=29;3=76&5=29&6=2904,29017,Alagoinhas,Alagoinhas,,
6,6:76:29,3=76&5=29;3=76&5=29&6=2904,29018,Entre Rios,Entre Rios,,
6,6:76:29,3=76&5=29;3=76&5=29&6=2905,29019,Catu,Catu,,
6,6:76:29,3=76&5=29;3=76&5=29&6=2905,29020,Santo Antônio de Jesus,Santo Antônio de Jesus,,
6,6:76:29,3=76&5=29;3=76&5=29&6=2905,29021,Salvador,Salvador,,
6,6:76:29,3=76&5=29;3=76&5=29&6=2906,29022,Boquira,Boquira,,
6,6:76:29,3=76&5=29;3=76&5=29&6=2906,29023,Seabra,Seabra,,
6,6:76:29,3=76&5=29;3=76&5=29&6=2906,29024,Jequié,Jequié,,
6,6:76:29,3=76&5=29;3=76&5=29&6=2906,29025,Livramento do Brumado,Livramento do Brumado,,
6,6:76:29,3=76&5=29;3=76&5=29&6=2906,29026,Guanambi,Guanambi,,
6,6:76:29,3=76&5=29;3=76&5=29&6=2906,29027,Brumado,Brumado,,
6,6:76:29,3=76&5=29;3=76&5=29&6=2906,29028,Vitória da Conquista,Vitória da Conquista,,
6,6:76:29,3=76&5=29;3=76&5=29&6=2906,29029,Itapetinga,Itapetinga,,
6,6:76:29,3=76&5=29;3=76&5=29&6=2907,29030,Valença,Valença,,
6,6:76:29,3=76&5=29;3=76&5=29&6=2907,29031,Ilhéus-Itabuna,Ilhéus-Itabuna,,
6,6:76:29,3=76&5=29;3=76&5=29&6=2907,29032,Porto Seguro,Porto Seguro,,
6,6:76:31,3=76&5=31;3=76&5=31&6=3101,31001,Unaí,Unaí,,
6,6:76:31,3=76&5=31;3=76&5=31&6=3101,31002,Paracatu,Paracatu,,
6,6:76:31,3=76&5=31;3=76&5=31&6=3102,31003,Januária,Januária,,
6,6:76:31,3=76&5=31;3=76&5=31&6=3102,31004,Janaúba,Janaúba,,
6,6:76:31,3=76&5=31;3=76&5=31&6=3102,31005,Salinas,Salinas,,
6,6:76:31,3=76&5=31;3=76&5=31&6=3102,31006,Pirapora,Pirapora,,
6,6:76:31,3=76&5=31;3=76&5=31&6=3102,31007,Montes Claros,Montes Claros,,
6,6:76:31,3=76&5=31;3=76&5=31&6=3102,31008,Grão Mogol,Grão Mogol,,
6,6:76:31,3=76&5=31;3=76&5=31&6=3102,31009,Bocaiúva,Bocaiúva,,
6,6:76:31,3=76&5=31;3=76&5=31&6=3103,31010,Diamantina,Diamantina,,
6,6:76:31,3=76&5=31;3=76&5=31&6=3103,31011,Capelinha,Capelinha,,
6,6:76:31,3=76&5=31;3=76&5=31&6=3103,31012,Araçuaí,Araçuaí,,
6,6:76:31,3=76&5=31;3=76&5=31&6=3103,31013,Pedra Azul,Pedra Azul,,
6,6:76:31,3=76&5=31;3=76&5=31&6=3103,31014,Almenara,Almenara,,
6,6:76:31,3=76&5=31;3=76&5=31&6=3104,31015,Teófilo Otoni,Teófilo Otoni,,
6,6:76:31,3=76&5=31;3=76&5=31&6=3104,31016,Nanuque,Nanuque,,
6,6:76:31,3=76&5=31;3=76&5=31&6=3105,31017,Ituiutaba,Ituiutaba,,
6,6:76:31,3=76&5=31;3=76&5=31&6=3105,31018,Uberlândia,Uberlândia,,
6,6:76:31,3=76&5=31;3=76&5=31&6=3105,31019,Patrocínio,Patrocínio,,
6,6:76:31,3=76&5=31;3=76&5=31&6=3105,31020,Patos de Minas,Patos de Minas,,
6,6:76:31,3=76&5=31;3=76&5=31&6=3105,31021,Frutal,Frutal,,
6,6:76:31,3=76&5=31;3=76&5=31&6=3105,31022,Uberaba,Uberaba,,
6,6:76:31,3=76&5=31;3=76&5=31&6=3105,31023,Araxá,Araxá,,
6,6:76:31,3=76&5=31;3=76&5=31&6=3106,31024,Três Marias,Três Marias,,
6,6:76:31,3=76&5=31;3=76&5=31&6=3106,31025,Curvelo,Curvelo,,
6,6:76:31,3=76&5=31;3=76&5=31&6=3106,31026,Bom Despacho,Bom Despacho,,
6,6:76:31,3=76&5=31;3=76&5=31&6=3107,31027,Sete Lagoas,Sete Lagoas,,
6,6:76:31,3=76&5=31;3=76&5=31&6=3107,31028,Conceição do Mato Dentro,Conceição do Mato Dentro,,
6,6:76:31,3=76&5=31;3=76&5=31&6=3107,31029,Pará de Minas,Pará de Minas,,
6,6:76:31,3=76&5=31;3=76&5=31&6=3107,31030,Belo Horizonte,Belo Horizonte,,
6,6:76:31,3=76&5=31;3=76&5=31&6=3107,31031,Itabira,Itabira,,
6,6:76:31,3=76&5=31;3=76&5=31&6=3107,31032,Itaguara,Itaguara,,
6,6:76:31,3=76&5=31;3=76&5=31&6=3107,31033,Ouro Preto,Ouro Preto,,
6,6:76:31,3=76&5=31;3=76&5=31&6=3107,31034,Conselheiro Lafaiete,Conselheiro Lafaiete,,
6,6:76:31,3=76&5=31;3=76&5=31&6=3108,31035,Guanhães,Guanhães,,
6,6:76:31,3=76&5=31;3=76&5=31&6=3108,31036,Peçanha,Peçanha,,
6,6:76:31,3=76&5=31;3=76&5=31&6=3108,31037,Governador Valadares,Governador Valadares,,
6,6:76:31,3=76&5=31;3=76&5=31&6=3108,31038,Mantena,Mantena,,
6,6:76:31,3=76&5=31;3=76&5=31&6=3108,31039,Ipatinga,Ipatinga,,
6,6:76:31,3=76&5=31;3=76&5=31&6=3108,31040,Caratinga,Caratinga,,
6,6:76:31,3=76&5=31;3=76&5=31&6=3108,31041,Aimorés,Aimorés,,
6,6:76:31,3=76&5=31;3=76&5=31&6=3109,31042,Piuí,Piuí,,
6,6:76:31,3=76&5=31;3=76&5=31&6=3109,31043,Divinópolis,Divinópolis,,
6,6:76:31,3=76&5=31;3=76&5=31&6=3109,31044,Formiga,Formiga,,
6,6:76:31,3=76&5=31;3=76&5=31&6=3109,31045,Campo Belo,Campo Belo,,
6,6:76:31,3=76&5=31;3=76&5=31&6=3109,31046,Oliveira,Oliveira,,
6,6:76:31,3=76&5=31;3=76&5=31&6=3110,31047,Passos,Passos,,
6,6:76:31,3=76&5=31;3=76&5=31&6=3110,31048,São Sebastião do Paraíso,São Sebastião do Paraíso,,
6,6:76:31,3=76&5=31;3=76&5=31&6=3110,31049,Alfenas,Alfenas,,
6,6:76:31,3=76&5=31;3=76&5=31&6=3110,31050,Varginha,Varginha,,
6,6:76:31,3=76&5=31;3=76&5=31&6=3110,31051,Poços de Caldas,Poços de Caldas,,
6,6:76:31,3=76&5=31;3=76&5=31&6=3110,31052,Pouso Alegre,Pouso Alegre,,
6,6:76:31,3=76&5=31;3=76&5=31&6=3110,31053,Santa Rita do Sapucaí,Santa Rita do Sapucaí,,
6,6:76:31,3=76&5=31;3=76&5=31&6=3110,31054,São Lourenço,São Lourenço,,
6,6:76:31,3=76&5=31;3=76&5=31&6=3110,31055,Andrelândia,Andrelândia,,
6,6:76:31,3=76&5=31;3=76&5=31&6=3110,31056,Itajubá,Itajubá,,
6,6:76:31,3=76&5=31;3=76&5=31&6=3111,31057,Lavras,Lavras,,
6,6:76:31,3=76&5=31;3=76&5=31&6=3111,31058,São João Del Rei,São João Del Rei,,
6,6:76:31,3=76&5=31;3=76&5=31&6=3111,31059,Barbacena,Barbacena,,
6,6:76:31,3=76&5=31;3=76&5=31&6=3112,31060,Ponte Nova,Ponte Nova,,
6,6:76:31,3=76&5=31;3=76&5=31&6=3112,31061,Manhuaçu,Manhuaçu,,
6,6:76:31,3=76&5=31;3=76&5=31&6=3112,31062,Viçosa,Viçosa,,
6,6:76:31,3=76&5=31;3=76&5=31&6=3112,31063,Muriaé,Muriaé,,
6,6:76:31,3=76&5=31;3=76&5=31&6=3112,31064,Ubá,Ubá,,
6,6:76:31,3=76&5=31;3=76&5=31&6=3112,31065,Juiz de Fora,Juiz de Fora,,
6,6:76:31,3=76&5=31;3=76&5=31&6=3112,31066,Cataguases,Cataguases,,
6,6:76:32,3=76&5=32;3=76&5=32&6=3201,32001,Barra de São Francisco,Barra de São Francisco,,
6,6:76:32,3=76&5=32;3=76&5=32&6=3201,32002,Nova Venécia,Nova Venécia,,
6,6:76:32,3=76&5=32;3=76&5=32&6=3201,32003,Colatina,Colatina,,
6,6:76:32,3=76&5=32;3=76&5=32&6=3202,32004,Montanha,Montanha,,
6,6:76:32,3=76&5=32;3=76&5=32&6=3202,32005,São Mateus,São Mateus,,
6,6:76:32,3=76&5=32;3=76&5=32&6=3202,32006,Linhares,Linhares,,
6,6:76:32,3=76&5=32;3=76&5=32&6=3203,32007,Afonso Cláudio,Afonso Cláudio,,
6,6:76:32,3=76&5=32;3=76&5=32&6=3203,32008,Santa Teresa,Santa Teresa,,
6,6:76:32,3=76&5=32;3=76&5=32&6=3203,32009,Vitória,Vitória,,
6,6:76:32,3=76&5=32;3=76&5=32&6=3203,32010,Guarapari,Guarapari,,
6,6:76:32,3=76&5=32;3=76&5=32&6=3204,32011,Alegre,Alegre,,
6,6:76:32,3=76&5=32;3=76&5=32&6=3204,32012,Cachoeiro de Itapemirim,Cachoeiro de Itapemirim,,
6,6:76:32,3=76&5=32;3=76&5=32&6=3204,32013,Itapemirim,Itapemirim,,
6,6:76:33,3=76&5=33;3=76&5=33&6=3301,33001,Itaperuna,Itaperuna,,
6,6:76:33,3=76&5=33;3=76&5=33&6=3301,33002,Santo Antônio de Pádua,Santo Antônio de Pádua,,
6,6:76:33,3=76&5=33;3=76&5=33&6=3302,33003,Campos dos Goytacazes,Campos dos Goytacazes,,
6,6:76:33,3=76&5=33;3=76&5=33&6=3302,33004,Macaé,Macaé,,
6,6:76:33,3=76&5=33;3=76&5=33&6=3303,33005,Três Rios,Três Rios,,
6,6:76:33,3=76&5=33;3=76&5=33&6=3303,33006,Cantagalo-Cordeiro,Cantagalo-Cordeiro,,
6,6:76:33,3=76&5=33;3=76&5=33&6=3303,33007,Nova Friburgo,Nova Friburgo,,
6,6:76:33,3=76&5=33;3=76&5=33&6=3303,33008,Santa Maria Madalena,Santa Maria Madalena,,
6,6:76:33,3=76&5=33;3=76&5=33&6=3304,33009,Bacia de São João,Bacia de São João,,
6,6:76:33,3=76&5=33;3=76&5=33&6=3304,33010,Lagos,Lagos,,
6,6:76:33,3=76&5=33;3=76&5=33&6=3305,33011,Vale do Paraíba Fluminense,Vale do Paraíba Fluminense,,
6,6:76:33,3=76&5=33;3=76&5=33&6=3305,33012,Barra do Piraí,Barra do Piraí,,
6,6:76:33,3=76&5=33;3=76&5=33&6=3305,33013,Baía da Ilha Grande,Baía da Ilha Grande,,
6,6:76:33,3=76&5=33;3=76&5=33&6=3306,33014,Vassouras,Vassouras,,
6,6:76:33,3=76&5=33;3=76&5=33&6=3306,33015,Serrana,Serrana,,
6,6:76:33,3=76&5=33;3=76&5=33&6=3306,33016,Macacu-Caceribu,Macacu-Caceribu,,
6,6:76:33,3=76&5=33;3=76&5=33&6=3306,33017,Itaguaí,Itaguaí,,
6,6:76:33,3=76&5=33;3=76&5=33&6=3306,33018,Rio de Janeiro,Rio de Janeiro,,
6,6:76:35,3=76&5=35;3=76&5=35&6=3501,35001,Jales,Jales,,
6,6:76:35,3=76&5=35;3=76&5=35&6=3501,35002,Fernandópolis,Fernandópolis,,
6,6:76:35,3=76&5=35;3=76&5=35&6=3501,35003,Votuporanga,Votuporanga,,
6,6:76:35,3=76&5=35;3=76&5=35&6=3501,35004,São José do Rio Preto,São José do Rio Preto,,
6,6:76:35,3=76&5=35;3=76&5=35&6=3501,35005,Catanduva,Catanduva,,
6,6:76:35,3=76&5=35;3=76&5=35&6=3501,35006,Auriflama,Auriflama,,
6,6:76:35,3=76&5=35;3=76&5=35&6=3501,35007,Nhandeara,Nhandeara,,
6,6:76:35,3=76&5=35;3=76&5=35&6=3501,35008,Novo Horizonte,Novo Horizonte,,
6,6:76:35,3=76&5=35;3=76&5=35&6=3502,35009,Barretos,Barretos,,
6,6:76:35,3=76&5=35;3=76&5=35&6=3502,35010,São Joaquim da Barra,São Joaquim da Barra,,
6,6:76:35,3=76&5=35;3=76&5=35&6=3502,35011,Ituverava,Ituverava,,
6,6:76:35,3=76&5=35;3=76&5=35&6=3502,35012,Franca,Franca,,
6,6:76:35,3=76&5=35;3=76&5=35&6=3502,35013,Jaboticabal,Jaboticabal,,
6,6:76:35,3=76&5=35;3=76&5=35&6=3502,35014,Ribeirão Preto,Ribeirão Preto,,
6,6:76:35,3=76&5=35;3=76&5=35&6=3502,35015,Batatais,Batatais,,
6,6:76:35,3=76&5=35;3=76&5=35&6=3503,35016,Andradina,Andradina,,
6,6:76:35,3=76&5=35;3=76&5=35&6=3503,35017,Araçatuba,Araçatuba,,
6,6:76:35,3=76&5=35;3=76&5=35&6=3503,35018,Birigui,Birigui,,
6,6:76:35,3=76&5=35;3=76&5=35&6=3504,35019,Lins,Lins,,
6,6:76:35,3=76&5=35;3=76&5=35&6=3504,35020,Bauru,Bauru,,
6,6:76:35,3=76&5=35;3=76&5=35&6=3504,35021,Jaú,Jaú,,
6,6:76:35,3=76&5=35;3=76&5=35&6=3504,35022,Avaré,Avaré,,
6,6:76:35,3=76&5=35;3=76&5=35&6=3504,35023,Botucatu,Botucatu,,
6,6:76:35,3=76&5=35;3=76&5=35&6=3505,35024,Araraquara,Araraquara,,
6,6:76:35,3=76&5=35;3=76&5=35&6=3505,35025,São Carlos,São Carlos,,
6,6:76:35,3=76&5=35;3=76&5=35&6=3506,35026,Rio Claro,Rio Claro,,
6,6:76:35,3=76&5=35;3=76&5=35&6=3506,35027,Limeira,Limeira,,
6,6:76:35,3=76&5=35;3=76&5=35&6=3506,35028,Piracicaba,Piracicaba,,
6,6:76:35,3=76&5=35;3=76&5=35&6=3507,35029,Pirassununga,Pirassununga,,
6,6:76:35,3=76&5=35;3=76&5=35&6=3507,35030,São João da Boa Vista,São João da Boa Vista,,
6,6:76:35,3=76&5=35;3=76&5=35&6=3507,35031,Mogi Mirim,Mogi Mirim,,
6,6:76:35,3=76&5=35;3=76&5=35&6=3507,35032,Campinas,Campinas,,
6,6:76:35,3=76&5=35;3=76&5=35&6=3507,35033,Amparo,Amparo,,
6,6:76:35,3=76&5=35;3=76&5=35&6=3508,35034,Dracena,Dracena,,
6,6:76:35,3=76&5=35;3=76&5=35&6=3508,35035,Adamantina,Adamantina,,
6,6:76:35,3=76&5=35;3=76&5=35&6=3508,35036,Presidente Prudente,Presidente Prudente,,
6,6:76:35,3=76&5=35;3=76&5=35&6=3509,35037,Tupã,Tupã,,
6,6:76:35,3=76&5=35;3=76&5=35&6=3509,35038,Marília,Marília,,
6,6:76:35,3=76&5=35;3=76&5=35&6=3510,35039,Assis,Assis,,
6,6:76:35,3=76&5=35;3=76&5=35&6=3510,35040,Ourinhos,Ourinhos,,
6,6:76:35,3=76&5=35;3=76&5=35&6=3511,35041,Itapeva,Itapeva,,
6,6:76:35,3=76&5=35;3=76&5=35&6=3511,35042,Itapetininga,Itapetininga,,
6,6:76:35,3=76&5=35;3=76&5=35&6=3511,35043,Tatuí,Tatuí,,
6,6:76:35,3=76&5=35;3=76&5=35&6=3511,35044,Capão Bonito,Capão Bonito,,
6,6:76:35,3=76&5=35;3=76&5=35&6=3512,35045,Piedade,Piedade,,
6,6:76:35,3=76&5=35;3=76&5=35&6=3512,35046,Sorocaba,Sorocaba,,
6,6:76:35,3=76&5=35;3=76&5=35&6=3512,35047,Jundiaí,Jundiaí,,
6,6:76:35,3=76&5=35;3=76&5=35&6=3512,35048,Bragança Paulista,Bragança Paulista,,
6,6:76:35,3=76&5=35;3=76&5=35&6=3513,35049,Campos do Jordão,Campos do Jordão,,
6,6:76:35,3=76&5=35;3=76&5=35&6=3513,35050,São José dos Campos,São José dos Campos,,
6,6:76:35,3=76&5=35;3=76&5=35&6=3513,35051,Guaratinguetá,Guaratinguetá,,
6,6:76:35,3=76&5=35;3=76&5=35&6=3513,35052,Bananal,Bananal,,
6,6:76:35,3=76&5=35;3=76&5=35&6=3513,35053,Paraibuna/Paraitinga,Paraibuna/Paraitinga,,
6,6:76:35,3=76&5=35;3=76&5=35&6=3513,35054,Caraguatatuba,Caraguatatuba,,
6,6:76:35,3=76&5=35;3=76&5=35&6=3514,35055,Registro,Registro,,
6,6:76:35,3=76&5=35;3=76&5=35&6=3514,35056,Itanhaém,Itanhaém,,
6,6:76:35,3=76&5=35;3=76&5=35&6=3515,35057,Osasco,Osasco,,
6,6:76:35,3=76&5=35;3=76&5=35&6=3515,35058,Franco da Rocha,Franco da Rocha,,
6,6:76:35,3=76&5=35;3=76&5=35&6=3515,35059,Guarulhos,Guarulhos,,
6,6:76:35,3=76&5=35;3=76&5=35&6=3515,35060,Itapecerica da Serra,Itapecerica da Serra,,
6,6:76:35,3=76&5=35;3=76&5=35&6=3515,35061,São Paulo,São Paulo,,
6,6:76:35,3=76&5=35;3=76&5=35&6=3515,35062,Mogi das Cruzes,Mogi das Cruzes,,
6,6:76:35,3=76&5=35;3=76&5=35&6=3515,35063,Santos,Santos,,
6,6:76:41,3=76&5=41;3=76&5=41&6=4101,41001,Paranavaí,Paranavaí,,
6,6:76:41,3=76&5=41;3=76&5=41&6=4101,41002,Umuarama,Umuarama,,
6,6:76:41,3=76&5=41;3=76&5=41&6=4101,41003,Cianorte,Cianorte,,
6,6:76:41,3=76&5=41;3=76&5=41&6=4102,41004,Goioerê,Goioerê,,
6,6:76:41,3=76&5=41;3=76&5=41&6=4102,41005,Campo Mourão,Campo Mourão,,
6,6:76:41,3=76&5=41;3=76&5=41&6=4103,41006,Astorga,Astorga,,
6,6:76:41,3=76&5=41;3=76&5=41&6=4103,41007,Porecatu,Porecatu,,
6,6:76:41,3=76&5=41;3=76&5=41&6=4103,41008,Floraí,Floraí,,
6,6:76:41,3=76&5=41;3=76&5=41&6=4103,41009,Maringá,Maringá,,
6,6:76:41,3=76&5=41;3=76&5=41&6=4103,41010,Apucarana,Apucarana,,
6,6:76:41,3=76&5=41;3=76&5=41&6=4103,41011,Londrina,Londrina,,
6,6:76:41,3=76&5=41;3=76&5=41&6=4103,41012,Faxinal,Faxinal,,
6,6:76:41,3=76&5=41;3=76&5=41&6=4103,41013,Ivaiporã,Ivaiporã,,
6,6:76:41,3=76&5=41;3=76&5=41&6=4104,41014,Assaí,Assaí,,
6,6:76:41,3=76&5=41;3=76&5=41&6=4104,41015,Cornélio Procópio,Cornélio Procópio,,
6,6:76:41,3=76&5=41;3=76&5=41&6=4104,41016,Jacarezinho,Jacarezinho,,
6,6:76:41,3=76&5=41;3=76&5=41&6=4104,41017,Ibaiti,Ibaiti,,
6,6:76:41,3=76&5=41;3=76&5=41&6=4104,41018,Wenceslau Braz,Wenceslau Braz,,
6,6:76:41,3=76&5=41;3=76&5=41&6=4105,41019,Telêmaco Borba,Telêmaco Borba,,
6,6:76:41,3=76&5=41;3=76&5=41&6=4105,41020,Jaguariaíva,Jaguariaíva,,
6,6:76:41,3=76&5=41;3=76&5=41&6=4105,41021,Ponta Grossa,Ponta Grossa,,
6,6:76:41,3=76&5=41;3=76&5=41&6=4106,41022,Toledo,Toledo,,
6,6:76:41,3=76&5=41;3=76&5=41&6=4106,41023,Cascavel,Cascavel,,
6,6:76:41,3=76&5=41;3=76&5=41&6=4106,41024,Foz do Iguaçu,Foz do Iguaçu,,
6,6:76:41,3=76&5=41;3=76&5=41&6=4107,41025,Capanema,Capanema,,
6,6:76:41,3=76&5=41;3=76&5=41&6=4107,41026,Francisco Beltrão,Francisco Beltrão,,
6,6:76:41,3=76&5=41;3=76&5=41&6=4107,41027,Pato Branco,Pato Branco,,
6,6:76:41,3=76&5=41;3=76&5=41&6=4108,41028,Pitanga,Pitanga,,
6,6:76:41,3=76&5=41;3=76&5=41&6=4108,41029,Guarapuava,Guarapuava,,
6,6:76:41,3=76&5=41;3=76&5=41&6=4108,41030,Palmas,Palmas,,
6,6:76:41,3=76&5=41;3=76&5=41&6=4109,41031,Prudentópolis,Prudentópolis,,
6,6:76:41,3=76&5=41;3=76&5=41&6=4109,41032,Irati,Irati,,
6,6:76:41,3=76&5=41;3=76&5=41&6=4109,41033,União da Vitória,União da Vitória,,
6,6:76:41,3=76&5=41;3=76&5=41&6=4109,41034,São Mateus do Sul,São Mateus do Sul,,
6,6:76:41,3=76&5=41;3=76&5=41&6=4110,41035,Cerro Azul,Cerro Azul,,
6,6:76:41,3=76&5=41;3=76&5=41&6=4110,41036,Lapa,Lapa,,
6,6:76:41,3=76&5=41;3=76&5=41&6=4110,41037,Curitiba,Curitiba,,
6,6:76:41,3=76&5=41;3=76&5=41&6=4110,41038,Paranaguá,Paranaguá,,
6,6:76:41,3=76&5=41;3=76&5=41&6=4110,41039,Rio Negro,Rio Negro,,
6,6:76:42,3=76&5=42;3=76&5=42&6=4201,42001,São Miguel do Oeste,São Miguel do Oeste,,
6,6:76:42,3=76&5=42;3=76&5=42&6=4201,42002,Chapecó,Chapecó,,
6,6:76:42,3=76&5=42;3=76&5=42&6=4201,42003,Xanxerê,Xanxerê,,
6,6:76:42,3=76&5=42;3=76&5=42&6=4201,42004,Joaçaba,Joaçaba,,
6,6:76:42,3=76&5=42;3=76&5=42&6=4201,42005,Concórdia,Concórdia,,
6,6:76:42,3=76&5=42;3=76&5=42&6=4202,42006,Canoinhas,Canoinhas,,
6,6:76:42,3=76&5=42;3=76&5=42&6=4202,42007,São Bento do Sul,São Bento do Sul,,
6,6:76:42,3=76&5=42;3=76&5=42&6=4202,42008,Joinville,Joinville,,
6,6:76:42,3=76&5=42;3=76&5=42&6=4203,42009,Curitibanos,Curitibanos,,
6,6:76:42,3=76&5=42;3=76&5=42&6=4203,42010,Campos de Lages,Campos de Lages,,
6,6:76:42,3=76&5=42;3=76&5=42&6=4204,42011,Rio do Sul,Rio do Sul,,
6,6:76:42,3=76&5=42;3=76&5=42&6=4204,42012,Blumenau,Blumenau,,
6,6:76:42,3=76&5=42;3=76&5=42&6=4204,42013,Itajaí,Itajaí,,
6,6:76:42,3=76&5=42;3=76&5=42&6=4204,42014,Ituporanga,Ituporanga,,
6,6:76:42,3=76&5=42;3=76&5=42&6=4205,42015,Tijucas,Tijucas,,
6,6:76:42,3=76&5=42;3=76&5=42&6=4205,42016,Florianópolis,Florianópolis,,
6,6:76:42,3=76&5=42;3=76&5=42&6=4205,42017,Tabuleiro,Tabuleiro,,
6,6:76:42,3=76&5=42;3=76&5=42&6=4206,42018,Tubarão,Tubarão,,
6,6:76:42,3=76&5=42;3=76&5=42&6=4206,42019,Criciúma,Criciúma,,
6,6:76:42,3=76&5=42;3=76&5=42&6=4206,42020,Araranguá,Araranguá,,
6,6:76:43,3=76&5=43;3=76&5=43&6=4301,43001,Santa Rosa,Santa Rosa,,
6,6:76:43,3=76&5=43;3=76&5=43&6=4301,43002,Três Passos,Três Passos,,
6,6:76:43,3=76&5=43;3=76&5=43&6=4301,43003,Frederico Westphalen,Frederico Westphalen,,
6,6:76:43,3=76&5=43;3=76&5=43&6=4301,43004,Erechim,Erechim,,
6,6:76:43,3=76&5=43;3=76&5=43&6=4301,43005,Sananduva,Sananduva,,
6,6:76:43,3=76&5=43;3=76&5=43&6=4301,43006,Cerro Largo,Cerro Largo,,
6,6:76:43,3=76&5=43;3=76&5=43&6=4301,43007,Santo Ângelo,Santo Ângelo,,
6,6:76:43,3=76&5=43;3=76&5=43&6=4301,43008,Ijuí,Ijuí,,
6,6:76:43,3=76&5=43;3=76&5=43&6=4301,43009,Carazinho,Carazinho,,
6,6:76:43,3=76&5=43;3=76&5=43&6=4301,43010,Passo Fundo,Passo Fundo,,
6,6:76:43,3=76&5=43;3=76&5=43&6=4301,43011,Cruz Alta,Cruz Alta,,
6,6:76:43,3=76&5=43;3=76&5=43&6=4301,43012,Não-Me-Toque,Não-Me-Toque,,
6,6:76:43,3=76&5=43;3=76&5=43&6=4301,43013,Soledade,Soledade,,
6,6:76:43,3=76&5=43;3=76&5=43&6=4302,43014,Guaporé,Guaporé,,
6,6:76:43,3=76&5=43;3=76&5=43&6=4302,43015,Vacaria,Vacaria,,
6,6:76:43,3=76&5=43;3=76&5=43&6=4302,43016,Caxias do Sul,Caxias do Sul,,
6,6:76:43,3=76&5=43;3=76&5=43&6=4303,43017,Santiago,Santiago,,
6,6:76:43,3=76&5=43;3=76&5=43&6=4303,43018,Santa Maria,Santa Maria,,
6,6:76:43,3=76&5=43;3=76&5=43&6=4303,43019,Restinga Seca,Restinga Seca,,
6,6:76:43,3=76&5=43;3=76&5=43&6=4304,43020,Santa Cruz do Sul,Santa Cruz do Sul,,
6,6:76:43,3=76&5=43;3=76&5=43&6=4304,43021,Lajeado-Estrela,Lajeado-Estrela,,
6,6:76:43,3=76&5=43;3=76&5=43&6=4304,43022,Cachoeira do Sul,Cachoeira do Sul,,
6,6:76:43,3=76&5=43;3=76&5=43&6=4305,43023,Montenegro,Montenegro,,
6,6:76:43,3=76&5=43;3=76&5=43&6=4305,43024,Gramado-Canela,Gramado-Canela,,
6,6:76:43,3=76&5=43;3=76&5=43&6=4305,43025,São Jerônimo,São Jerônimo,,
6,6:76:43,3=76&5=43;3=76&5=43&6=4305,43026,Porto Alegre,Porto Alegre,,
6,6:76:43,3=76&5=43;3=76&5=43&6=4305,43027,Osório,Osório,,
6,6:76:43,3=76&5=43;3=76&5=43&6=4305,43028,Camaquã,Camaquã,,
6,6:76:43,3=76&5=43;3=76&5=43&6=4306,43029,Campanha Ocidental,Campanha Ocidental,,
6,6:76:43,3=76&5=43;3=76&5=43&6=4306,43030,Campanha Central,Campanha Central,,
6,6:76:43,3=76&5=43;3=76&5=43&6=4306,43031,Campanha Meridional,Campanha Meridional,,
6,6:76:43,3=76&5=43;3=76&5=43&6=4307,43032,Serras de Sudeste,Serras de Sudeste,,
6,6:76:43,3=76&5=43;3=76&5=43&6=4307,43033,Pelotas,Pelotas,,
6,6:76:43,3=76&5=43;3=76&5=43&6=4307,43034,Jaguarão,Jaguarão,,
6,6:76:43,3=76&5=43;3=76&5=43&6=4307,43035,Litoral Lagunar,Litoral Lagunar,,
6,6:76:50,3=76&5=50;3=76&5=50&6=5001,50001,Baixo Pantanal,Baixo Pantanal,,
6,6:76:50,3=76&5=50;3=76&5=50&6=5001,50002,Aquidauana,Aquidauana,,
6,6:76:50,3=76&5=50;3=76&5=50&6=5002,50003,Alto Taquari,Alto Taquari,,
6,6:76:50,3=76&5=50;3=76&5=50&6=5002,50004,Campo Grande,Campo Grande,,
6,6:76:50,3=76&5=50;3=76&5=50&6=5003,50005,Cassilândia,Cassilândia,,
6,6:76:50,3=76&5=50;3=76&5=50&6=5003,50006,Paranaíba,Paranaíba,,
6,6:76:50,3=76&5=50;3=76&5=50&6=5003,50007,Três Lagoas,Três Lagoas,,
6,6:76:50,3=76&5=50;3=76&5=50&6=5003,50008,Nova Andradina,Nova Andradina,,
6,6:76:50,3=76&5=50;3=76&5=50&6=5004,50009,Bodoquena,Bodoquena,,
6,6:76:50,3=76&5=50;3=76&5=50&6=5004,50010,Dourados,Dourados,,
6,6:76:50,3=76&5=50;3=76&5=50&6=5004,50011,Iguatemi,Iguatemi,,
6,6:76:51,3=76&5=51;3=76&5=51&6=5101,51001,Aripuanã,Aripuanã,,
6,6:76:51,3=76&5=51;3=76&5=51&6=5101,51002,Alta Floresta,Alta Floresta,,
6,6:76:51,3=76&5=51;3=76&5=51&6=5101,51003,Colíder,Colíder,,
6,6:76:51,3=76&5=51;3=76&5=51&6=5101,51004,Parecis,Parecis,,
6,6:76:51,3=76&5=51;3=76&5=51&6=5101,51005,Arinos,Arinos,,
6,6:76:51,3=76&5=51;3=76&5=51&6=5101,51006,Alto Teles Pires,Alto Teles Pires,,
6,6:76:51,3=76&5=51;3=76&5=51&6=5101,51007,Sinop,Sinop,,
6,6:76:51,3=76&5=51;3=76&5=51&6=5101,51008,Paranatinga,Paranatinga,,
6,6:76:51,3=76&5=51;3=76&5=51&6=5102,51009,Norte Araguaia,Norte Araguaia,,
6,6:76:51,3=76&5=51;3=76&5=51&6=5102,51010,Canarana,Canarana,,
6,6:76:51,3=76&5=51;3=76&5=51&6=5102,51011,Médio Araguaia,Médio Araguaia,,
6,6:76:51,3=76&5=51;3=76&5=51&6=5103,51012,Alto Guaporé,Alto Guaporé,,
6,6:76:51,3=76&5=51;3=76&5=51&6=5103,51013,Tangará da Serra,Tangará da Serra,,
6,6:76:51,3=76&5=51;3=76&5=51&6=5103,51014,Jauru,Jauru,,
6,6:76:51,3=76&5=51;3=76&5=51&6=5104,51015,Alto Paraguai,Alto Paraguai,,
6,6:76:51,3=76&5=51;3=76&5=51&6=5104,51016,Rosário Oeste,Rosário Oeste,,
6,6:76:51,3=76&5=51;3=76&5=51&6=5104,51017,Cuiabá,Cuiabá,,
6,6:76:51,3=76&5=51;3=76&5=51&6=5104,51018,Alto Pantanal,Alto Pantanal,,
6,6:76:51,3=76&5=51;3=76&5=51&6=5105,51019,Primavera do Leste,Primavera do Leste,,
6,6:76:51,3=76&5=51;3=76&5=51&6=5105,51020,Tesouro,Tesouro,,
6,6:76:51,3=76&5=51;3=76&5=51&6=5105,51021,Rondonópolis,Rondonópolis,,
6,6:76:51,3=76&5=51;3=76&5=51&6=5105,51022,Alto Araguaia,Alto Araguaia,,
6,6:76:52,3=76&5=52;3=76&5=52&6=5201,52001,São Miguel do Araguaia,São Miguel do Araguaia,,
6,6:76:52,3=76&5=52;3=76&5=52&6=5201,52002,Rio Vermelho,Rio Vermelho,,
6,6:76:52,3=76&5=52;3=76&5=52&6=5201,52003,Aragarças,Aragarças,,
6,6:76:52,3=76&5=52;3=76&5=52&6=5202,52004,Porangatu,Porangatu,,
6,6:76:52,3=76&5=52;3=76&5=52&6=5202,52005,Chapada dos Veadeiros,Chapada dos Veadeiros,,
6,6:76:52,3=76&5=52;3=76&5=52&6=5203,52006,Ceres,Ceres,,
6,6:76:52,3=76&5=52;3=76&5=52&6=5203,52007,Anápolis,Anápolis,,
6,6:76:52,3=76&5=52;3=76&5=52&6=5203,52008,Iporá,Iporá,,
6,6:76:52,3=76&5=52;3=76&5=52&6=5203,52009,Anicuns,Anicuns,,
6,6:76:52,3=76&5=52;3=76&5=52&6=5203,52010,Goiânia,Goiânia,,
6,6:76:52,3=76&5=52;3=76&5=52&6=5204,52011,Vão do Paranã,Vão do Paranã,,
6,6:76:52,3=76&5=52;3=76&5=52&6=5204,52012,Entorno de Brasília,Entorno de Brasília,,
6,6:76:52,3=76&5=52;3=76&5=52&6=5205,52013,Sudoeste de Goiás,Sudoeste de Goiás,,
6,6:76:52,3=76&5=52;3=76&5=52&6=5205,52014,Vale do Rio dos Bois,Vale do Rio dos Bois,,
6,6:76:52,3=76&5=52;3=76&5=52&6=5205,52015,Meia Ponte,Meia Ponte,,
6,6:76:52,3=76&5=52;3=76&5=52&6=5205,52016,Pires do Rio,Pires do Rio,,
6,6:76:52,3=76&5=52;3=76&5=52&6=5205,52017,Catalão,Catalão,,
6,6:76:52,3=76&5=52;3=76&5=52&6=5205,52018,Quirinópolis,Quirinópolis,,
6,6:76:53,3=76&5=53;3=76&5=53&6=5301,53001,Brasília,Brasília,,
